NORAD_CAT_ID,OBJECT_NAME,OBJECT_TYPE,EPOCH,MEAN_MOTION,ECCENTRICITY,INCLINATION,RA_OF_ASC_NODE,ARG_OF_PERICENTER,MEAN_ANOMALY,BSTAR,MEAN_MOTION_DOT,MEAN_MOTION_DDOT,TLE_LINE0,TLE_LINE1,TLE_LINE2,SEMIMAJOR_AXIS,PERIOD,APOGEE,PERIGEE,DECAYED
53250.0,STARLINK-4059,PAYLOAD,2024-03-28 10:15:29,15.08845151,0.0001354,53.2153,147.1022,90.7592,269.3555,0.0003244,4.879e-05,0.0,0 STARLINK-4059,1 53250U 22086J   24088.42742881  .00004879  00000-0  32440-3 0  9995,2 53250  53.2153 147.1022 0001354  90.7592 269.3555 15.08845151 93700,6917.865,95.437,540.666,538.793,0.0
53250.0,STARLINK-4059,PAYLOAD,2024-03-28 21:23:10,15.08853447,0.0001325,53.2144,145.0198,91.0378,269.0766,0.00010693,1.415e-05,0.0,0 STARLINK-4059,1 53250U 22086J   24088.89109941  .00001415  00000-0  10693-3 0  9999,2 53250  53.2144 145.0198 0001325  91.0378 269.0766 15.08853447 93770,6917.839,95.437,540.621,538.788,0.0
53250.0,STARLINK-4059,PAYLOAD,2024-03-29 13:17:01,15.08857792,0.0001559,53.216,142.0454,99.4665,260.6504,-3.8957e-06,-3.5e-06,0.0,0 STARLINK-4059,1 53250U 22086J   24089.55349430 -.00000350  00000-0 -38957-5 0  9996,2 53250  53.2160 142.0454 0001559  99.4665 260.6504 15.08857792 93673,6917.826,95.436,540.769,538.613,0.0
53250.0,STARLINK-4059,PAYLOAD,2024-03-30 09:57:03,15.08844611,0.0001238,53.2155,138.18,90.0351,270.0783,0.00010582,1.397e-05,0.0,0 STARLINK-4059,1 53250U 22086J   24090.41461916  .00001397  00000-0  10582-3 0  9999,2 53250  53.2155 138.1800 0001238  90.0351 270.0783 15.08844611 93806,6917.866,95.437,540.588,538.875,0.0
53250.0,STARLINK-4059,PAYLOAD,2024-03-31 01:50:54,15.08839428,0.0001391,53.2157,135.2076,92.6775,267.4377,6.5477e-05,7.54e-06,0.0,0 STARLINK-4059,1 53250U 22086J   24091.07702168  .00000754  00000-0  65477-4 0  9999,2 53250  53.2157 135.2076 0001391  92.6775 267.4377 15.08839428 93909,6917.882,95.438,540.709,538.785,0.0
53250.0,STARLINK-4059,PAYLOAD,2024-03-31 09:47:53,15.08791467,0.0001169,53.2164,133.7185,89.1868,270.9259,-0.00033015,-5.531e-05,0.0,0 STARLINK-4059,1 53250U 22086J   24091.40826369 -.00005531  00000-0 -33015-3 0  9998,2 53250  53.2164 133.7185 0001169  89.1868 270.9259 15.08791467 93951,6918.029,95.441,540.702,539.085,0.0
53250.0,STARLINK-4059,PAYLOAD,2024-03-31 19:20:11,15.08813618,0.0001082,53.2167,131.9327,85.9338,274.1778,-0.00014601,-2.609e-05,0.0,0 STARLINK-4059,1 53250U 22086J   24091.80569003 -.00002609  00000-0 -14601-3 0  9994,2 53250  53.2167 131.9327 0001082  85.9338 274.1778 15.08813618 94015,6917.961,95.439,540.575,539.078,0.0
53250.0,STARLINK-4059,PAYLOAD,2024-04-01 01:41:43,15.0882381,4.03e-05,53.2164,130.7477,91.9134,268.1904,2.0002e-05,3.1e-07,0.0,0 STARLINK-4059,1 53250U 22086J   24092.07064188  .00000031  00000-0  20002-4 0  9996,2 53250  53.2164 130.7477 0000403  91.9134 268.1904 15.08823810 94055,6917.93,95.439,540.074,539.516,0.0
53250.0,STARLINK-4059,PAYLOAD,2024-04-01 11:14:01,15.08844802,0.0001348,53.2163,128.9629,76.1507,283.9635,0.00015411,2.166e-05,0.0,0 STARLINK-4059,1 53250U 22086J   24092.46806846  .00002166  00000-0  15411-3 0  9992,2 53250  53.2163 128.9629 0001348  76.1507 283.9635 15.08844802 94117,6917.866,95.437,540.663,538.798,0.0
53250.0,STARLINK-4059,PAYLOAD,2024-04-02 11:04:47,15.08858934,0.0001291,53.2154,124.5022,58.2176,301.8942,0.00034951,5.282e-05,0.0,0 STARLINK-4059,1 53250U 22086J   24093.46166155  .00005282  00000-0  34951-3 0  9997,2 53250  53.2154 124.5022 0001291  58.2176 301.8942 15.08858934 94466,6917.823,95.436,540.581,538.794,0.0
53250.0,STARLINK-4059,PAYLOAD,2024-04-03 09:20:11,15.08846336,0.0001389,53.2155,120.3389,67.0072,293.1066,-5.1065e-05,-1.101e-05,0.0,0 STARLINK-4059,1 53250U 22086J   24094.38902611 -.00001101  00000-0 -51065-4 0  9998,2 53250  53.2155 120.3389 0001389  67.0072 293.1066 15.08846336 94405,6917.861,95.437,540.687,538.765,0.0
53250.0,STARLINK-4059,PAYLOAD,2024-04-03 18:52:30,15.0884631,0.0001439,53.2155,118.5546,66.5255,293.5888,-4.1663e-05,-9.51e-06,0.0,0 STARLINK-4059,1 53250U 22086J   24094.78646494 -.00000951  00000-0 -41663-4 0  9991,2 53250  53.2155 118.5546 0001439  66.5255 293.5888 15.08846310 94668,6917.861,95.437,540.722,538.731,0.0
53250.0,STARLINK-4059,PAYLOAD,2024-04-04 07:35:35,15.08847809,0.0001425,53.2154,116.1751,67.3779,292.7363,9.1669e-07,-2.73e-06,0.0,0 STARLINK-4059,1 53250U 22086J   24095.31638224 -.00000273  00000-0  91669-6 0  9992,2 53250  53.2154 116.1751 0001425  67.3779 292.7363 15.08847809 94746,6917.857,95.437,540.707,538.736,0.0
53250.0,STARLINK-4059,PAYLOAD,2024-04-05 10:37:08,15.0884537,0.0001384,53.2146,111.1188,72.0504,288.0638,0.0001651,2.341e-05,0.0,0 STARLINK-4059,1 53250U 22086J   24096.44246265  .00002341  00000-0  16510-3 0  9993,2 53250  53.2146 111.1188 0001384  72.0504 288.0638 15.08845370 94710,6917.864,95.437,540.686,538.772,0.0
53250.0,STARLINK-4059,PAYLOAD,2024-04-05 18:34:04,15.08844378,0.0001388,53.2146,109.6318,71.9578,288.1565,0.00013052,1.79e-05,0.0,0 STARLINK-4059,1 53250U 22086J   24096.77366252  .00001790  00000-0  13052-3 0  9993,2 53250  53.2146 109.6318 0001388  71.9578 288.1565 15.08844378 94964,6917.867,95.437,540.692,538.772,0.0
53250.0,STARLINK-4059,PAYLOAD,2024-04-06 04:06:23,15.08839359,0.0001447,53.2157,107.848,74.3886,285.7266,3.3607e-05,2.47e-06,0.0,0 STARLINK-4059,1 53250U 22086J   24097.17110631  .00000247  00000-0  33607-4 0  9991,2 53250  53.2157 107.8480 0001447  74.3886 285.7266 15.08839359 94820,6917.882,95.438,540.748,538.746,0.0
53250.0,STARLINK-4059,PAYLOAD,2024-04-06 07:17:09,15.08843168,0.0001542,53.2167,107.252,85.228,274.8888,4.5442e-05,4.35e-06,0.0,0 STARLINK-4059,1 53250U 22086J   24097.30358287  .00000435  00000-0  45442-4 0  9996,2 53250  53.2167 107.2520 0001542  85.2280 274.8888 15.08843168 95042,6917.871,95.437,540.802,538.669,0.0
53250.0,STARLINK-4059,PAYLOAD,2024-04-07 07:07:57,15.08833657,0.0001539,53.2168,102.7911,86.0941,274.0227,-8.2753e-06,-4.2e-06,0.0,0 STARLINK-4059,1 53250U 22086J   24098.29719128 -.00000420  00000-0 -82753-5 0  9993,2 53250  53.2168 102.7911 0001539  86.0941 274.0227 15.08833657 94990,6917.9,95.438,540.829,538.7,0.0
53250.0,STARLINK-4059,PAYLOAD,2024-04-07 16:40:15,15.08837495,0.000153,53.2171,101.007,85.6166,274.5001,2.1672e-05,5.7e-07,0.0,0 STARLINK-4059,1 53250U 22086J   24098.69462919  .00000057  00000-0  21672-4 0  9996,2 53250  53.2171 101.0070 0001530  85.6166 274.5001 15.08837495 95256,6917.888,95.438,540.811,538.695,0.0
53250.0,STARLINK-4059,PAYLOAD,2024-04-08 03:47:57,15.08838768,0.00014,53.2167,98.9259,82.9038,277.2113,8.0653e-05,9.96e-06,0.0,0 STARLINK-4059,1 53250U 22086J   24099.15830747  .00000996  00000-0  80653-4 0  9992,2 53250  53.2167  98.9259 0001400  82.9038 277.2113 15.08838768 95122,6917.884,95.438,540.718,538.781,0.0
53250.0,STARLINK-4059,PAYLOAD,2024-04-08 06:58:43,15.08842558,0.0001409,53.2166,98.3318,82.3591,277.7561,0.00010537,1.39e-05,0.0,0 STARLINK-4059,1 53250U 22086J   24099.29078456  .00001390  00000-0  10537-3 0  9990,2 53250  53.2166  98.3318 0001409  82.3591 277.7561 15.08842558 95346,6917.873,95.437,540.712,538.763,0.0
53250.0,STARLINK-4059,PAYLOAD,2024-04-08 22:52:35,15.08833763,0.0001409,53.2163,95.3592,86.9671,273.1482,8.6742e-05,1.093e-05,0.0,0 STARLINK-4059,1 53250U 22086J   24099.95319214  .00001093  00000-0  86742-4 0  9995,2 53250  53.2163  95.3592 0001409  86.9671 273.1482 15.08833763 95444,6917.899,95.438,540.739,538.79,0.0
53250.0,STARLINK-4059,PAYLOAD,2024-04-09 03:38:45,15.08830333,0.000141,53.2166,94.467,87.8692,272.2462,5.0913e-05,5.22e-06,0.0,0 STARLINK-4059,1 53250U 22086J   24100.15191640  .00000522  00000-0  50913-4 0  9998,2 53250  53.2166  94.4670 0001410  87.8692 272.2462 15.08830333 95278,6917.91,95.438,540.75,538.8,0.0
53250.0,STARLINK-4059,PAYLOAD,2024-04-09 06:49:31,15.0883081,0.0001397,53.2169,93.8726,90.3761,269.7391,4.9971e-05,5.07e-06,0.0,0 STARLINK-4059,1 53250U 22086J   24100.28439672  .00000507  00000-0  49971-4 0  9997,2 53250  53.2169  93.8726 0001397  90.3761 269.7391 15.08830810 95492,6917.908,95.438,540.74,538.807,0.0
53250.0,STARLINK-4059,PAYLOAD,2024-04-09 22:43:22,15.08845005,0.000159,53.2179,90.8988,89.9878,270.1296,-1.9676e-05,-6.01e-06,0.0,0 STARLINK-4059,1 53250U 22086J   24100.94679229 -.00000601  00000-0 -19676-4 0  9990,2 53250  53.2179  90.8988 0001590  89.9878 270.1296 15.08845005 95591,6917.865,95.437,540.83,538.63,0.0
53250.0,STARLINK-4059,PAYLOAD,2024-04-10 03:29:32,15.08840346,0.0001363,53.2172,90.0068,92.0574,268.0574,0.00012586,1.716e-05,0.0,0 STARLINK-4059,1 53250U 22086J   24101.14551074  .00001716  00000-0  12586-3 0  9998,2 53250  53.2172  90.0068 0001363  92.0574 268.0574 15.08840346 95421,6917.879,95.438,540.687,538.801,0.0
53250.0,STARLINK-4059,PAYLOAD,2024-04-10 08:15:41,15.08846799,0.000139,53.2172,89.1147,91.3576,268.7576,7.7371e-05,9.44e-06,0.0,0 STARLINK-4059,1 53250U 22086J   24101.34422721  .00000944  00000-0  77371-4 0  9992,2 53250  53.2172  89.1147 0001390  91.3576 268.7576 15.08846799 95654,6917.86,95.437,540.686,538.763,0.0
53250.0,STARLINK-4059,PAYLOAD,2024-04-10 16:12:37,15.08845871,0.000136,53.2172,87.6266,83.2779,276.8368,1.9603e-05,2.4e-07,0.0,0 STARLINK-4059,1 53250U 22086J   24101.67542838  .00000024  00000-0  19603-4 0  9993,2 53250  53.2172  87.6266 0001360  83.2779 276.8368 15.08845871 95706,6917.862,95.437,540.668,538.787,0.0
53250.0,STARLINK-4059,PAYLOAD,2024-04-11 04:55:42,15.08834989,0.0001298,53.2172,85.2473,82.1328,277.9811,4.7693e-05,4.71e-06,0.0,0 STARLINK-4059,1 53250U 22086J   24102.20535613  .00000471  00000-0  47693-4 0  9992,2 53250  53.2172  85.2473 0001298  82.1328 277.9811 15.08834989 95587,6917.896,95.438,540.659,538.863,0.0
53250.0,STARLINK-4059,PAYLOAD,2024-04-11 08:06:28,15.08838081,0.0001359,53.2172,84.6526,81.9568,278.1578,7.3041e-05,8.75e-06,0.0,0 STARLINK-4059,1 53250U 22086J   24102.33783408  .00000875  00000-0  73041-4 0  9997,2 53250  53.2172  84.6526 0001359  81.9568 278.1578 15.08838081 95805,6917.886,95.438,540.691,538.811,0.0
